STARLINK-31017          
1 58515U 23191H   26068.71937380  .00000350  00000+0  22252-4 0  9994
2 58515  43.0039 230.9942 0001578 261.0061  99.0612 15.27582052128185
2025-313BC              
1 67298U 25313BC  26068.18968176  .00075331  00000+0  26410-2 0  9997
2 67298  97.3985 144.8110 0008478 328.9209  31.1528 15.29126358  7890
